1 47472U 21006BM  21252.83973665  .00002981  00000-0  17425-3 0  9994
2 47472  97.4878 312.4301 0008726 173.6016 186.5327 15.12618391 34792
1 47472U 21006BM  21253.10434634  .00002918  00000-0  17061-3 0  9999
2 47472  97.4877 312.6897 0008756 172.7259 187.4100 15.12620023 34834
1 47472U 21006BM  21253.69971721  .00003128  00000-0  18265-3 0  9997
2 47472  97.4876 313.2739 0008809 170.7913 189.3481 15.12624645 34926
1 47472U 21006BM  21253.83202170  .00003036  00000-0  17736-3 0  9998
2 47472  97.4876 313.4037 0008819 170.3634 189.7767 15.12625166 34948
1 47472U 21006BM  21254.42738956  .00003594  00000-0  20924-3 0  9992
2 47472  97.4876 313.9879 0008874 168.3992 191.7445 15.12631462 35035
1 47472U 21006BM  21254.75814980  .00003081  00000-0  17991-3 0  9991
2 47472  97.4875 314.3124 0008900 167.2580 192.8877 15.12631897 35081
1 47472U 21006BM  21255.41966818  .00002746  00000-0  16073-3 0  9990
2 47472  97.4874 314.9615 0008957 165.0217 195.1281 15.12635098 35189
1 47472U 21006BM  21255.88272991  .00002757  00000-0  16134-3 0  9993
2 47472  97.4872 315.4158 0008975 163.5402 196.6122 15.12638012 35251
1 47472U 21006BM  21256.08118478  .00002698  00000-0  15794-3 0  9990
2 47472  97.4872 315.6105 0008990 162.9218 197.2317 15.12639032 35289
1 47472U 21006BM  21256.41194282  .00002520  00000-0  14780-3 0  9992
2 47472  97.4872 315.9351 0009019 161.8745 198.2809 15.12640270 35330
1 47472U 21006BM  21256.87500303  .00002594  00000-0  15198-3 0  9992
2 47472  97.4872 316.3894 0009055 160.4499 199.7081 15.12643156 35400
1 47472U 21006BM  21257.13960857  .00002600  00000-0  15234-3 0  9995
2 47472  97.4872 316.6490 0009075 159.6395 200.5199 15.12644666 35444
1 47472U 21006BM  21257.40421382  .00002685  00000-0  15720-3 0  9993
2 47472  97.4872 316.9086 0009098 158.7825 201.3785 15.12646370 35489
1 47472U 21006BM  21257.86727263  .00002677  00000-0  15670-3 0  9995
2 47472  97.4872 317.3630 0009137 157.3503 202.8133 15.12648720 35553
1 47472U 21006BM  21258.39648181  .00002723  00000-0  15934-3 0  9990
2 47472  97.4873 317.8822 0009210 155.6597 204.5071 15.12651539 35639
1 47472U 21006BM  21258.66108602  .00002737  00000-0  16014-3 0  9994
2 47472  97.4873 318.1419 0009237 154.8968 205.2714 15.12652963 35675
1 47472U 21006BM  21259.12414286  .00002743  00000-0  16047-3 0  9997
2 47472  97.4873 318.5962 0009277 153.4942 206.6765 15.12655265 35740
1 47472U 21006BM  21259.58719912  .00002772  00000-0  16209-3 0  9993
2 47472  97.4874 319.0506 0009327 152.1358 208.0374 15.12657599 35816
1 47472U 21006BM  21260.05025451  .00002747  00000-0  16066-3 0  9998
2 47472  97.4874 319.5050 0009361 150.7185 209.4572 15.12659849 35887
1 47472U 21006BM  21260.11640535  .00002587  00000-0  15149-3 0  9994
2 47472  97.4874 319.5699 0009368 150.5067 209.6694 15.12659646 35893
1 47472U 21006BM  21260.91021236  .00002721  00000-0  15913-3 0  9992
2 47472  97.4874 320.3488 0009446 148.0680 212.1125 15.12664305 36010
1 47472U 21006BM  21261.10866381  .00002664  00000-0  15589-3 0  9997
2 47472  97.4873 320.5435 0009462 147.4641 212.7174 15.12665245 36048
1 47472U 21006BM  21261.43941551  .00002724  00000-0  15933-3 0  9996
2 47472  97.4873 320.8681 0009489 146.3806 213.8028 15.12667436 36093
1 47472U 21006BM  21261.57171641  .00002421  00000-0  14202-3 0  9998
2 47472  97.4873 320.9979 0009509 146.0284 214.1557 15.12667172 36115
1 47472U 21006BM  21262.43166952  .00001847  00000-0  10918-3 0  9994
2 47472  97.4872 321.8417 0009583 143.4401 216.7486 15.12670106 36249
1 47472U 21006BM  21262.89471992  .00002060  00000-0  12137-3 0  9990
2 47472  97.4870 322.2961 0009608 141.9488 218.2423 15.12673378 36312
1 47472U 21006BM  21263.15932011  .00001998  00000-0  11783-3 0  9999
2 47472  97.4870 322.5557 0009622 141.1613 219.0311 15.12674545 36350
1 47472U 21006BM  21263.75466992  .00001796  00000-0  10627-3 0  9997
2 47472  97.4868 323.1398 0009662 139.3146 220.8808 15.12676698 36443
1 47472U 21006BM  21263.88696961  .00001852  00000-0  10944-3 0  9997
2 47472  97.4868 323.2697 0009670 138.9134 221.2827 15.12677497 36463
1 47472U 21006BM  21264.41616859  .00001830  00000-0  10821-3 0  9995
2 47472  97.4865 323.7890 0009709 137.3394 222.8592 15.12679630 36540
1 47472U 21006BM  21265.14381605  .00001959  00000-0  11555-3 0  9991
2 47472  97.4862 324.5030 0009746 135.1607 225.0413 15.12682767 36650
1 47472U 21006BM  21265.47456419  .00002490  00000-0  14584-3 0  9999
2 47472  97.4862 324.8275 0009763 134.1715 226.0320 15.12685672 36704
1 47472U 21006BM  21266.40065709  .00003103  00000-0  18083-3 0  9991
2 47472  97.4858 325.7361 0009808 131.4397 228.7678 15.12691419 36847
1 47472U 21006BM  21266.73140374  .00003162  00000-0  18417-3 0  9995
2 47472  97.4857 326.0606 0009813 130.5627 229.6460 15.12693175 36899
1 47472U 21006BM  21267.39289541  .00003206  00000-0  18668-3 0  9995
2 47472  97.4855 326.7096 0009853 128.5783 231.6332 15.12696931 36996
1 47472U 21006BM  21267.72364068  .00003824  00000-0  22187-3 0  9997
2 47472  97.4854 327.0341 0009871 127.6295 232.5833 15.12700681 37041
1 47472U 21006BM  21268.05438489  .00004110  00000-0  23816-3 0  9992
2 47472  97.4853 327.3585 0009879 126.6785 233.5355 15.12703821 37098
1 47472U 21006BM  21268.98046588  .00004526  00000-0  26183-3 0  9990
2 47472  97.4852 328.2670 0009928 123.9638 236.2537 15.12711883 37239
1 47472U 21006BM  21269.44350472  .00004531  00000-0  26213-3 0  9992
2 47472  97.4851 328.7213 0009954 122.6414 237.5779 15.12715032 37303
1 47472U 21006BM  21269.64194956  .00004478  00000-0  25908-3 0  9997
2 47472  97.4851 328.9159 0009963 122.0677 238.1523 15.12716616 37335
1 47472U 21006BM  21270.03883832  .00004674  00000-0  27023-3 0  9998
2 47472  97.4851 329.3053 0009973 120.8707 239.3506 15.12720453 37398
1 47472U 21006BM  21270.43572625  .00004216  00000-0  24410-3 0  9996
2 47472  97.4852 329.6946 0010006 119.6581 240.5647 15.12722849 37456
1 47472U 21006BM  21270.63416983  .00003063  00000-0  17836-3 0  9995
2 47472  97.4852 329.8892 0010031 119.0897 241.1340 15.12722121 37483
1 47472U 21006BM  21271.09720442  .00004318  00000-0  24986-3 0  9992
2 47472  97.4851 330.3434 0010061 117.6833 242.5420 15.12728550 37552
1 47472U 21006BM  21271.49409038  .00004165  00000-0  24111-3 0  9991
2 47472  97.4852 330.7328 0010088 116.5061 243.7205 15.12731218 37615
1 47472U 21006BM  21272.42015429  .00003647  00000-0  21160-3 0  9997
2 47472  97.4851 331.6412 0010121 113.8123 246.4170 15.12737163 37756
1 47472U 21006BM  21273.54465550  .00003630  00000-0  21057-3 0  9992
2 47472  97.4851 332.7443 0010122 110.6152 249.6166 15.12745064 37928
1 47472U 21006BM  21273.74309629  .00003690  00000-0  21395-3 0  9999
2 47472  97.4851 332.9390 0010123 110.0664 250.1657 15.12746572 37954
1 47472U 21006BM  21274.53685651  .00004725  00000-0  27283-3 0  9991
2 47472  97.4851 333.7177 0010123 107.8059 252.4277 15.12754955 38079
1 47472U 21006BM  21274.86758889  .00004937  00000-0  28489-3 0  9995
2 47472  97.4851 334.0421 0010116 106.8630 253.3711 15.12757998 38120
1 47472U 21006BM  21275.13217433  .00005059  00000-0  29184-3 0  9990
2 47472  97.4851 334.3017 0010107 106.0801 254.1543 15.12760550 38160
1 47472U 21006BM  21275.19832101  .00004039  00000-0  23379-3 0  9998
2 47472  97.4851 334.3666 0010104 105.9274 254.3071 15.12758499 38177
1 47472U 21006BM  21275.72749041  .00004799  00000-0  27702-3 0  9994
2 47472  97.4851 334.8857 0010098 104.4189 255.8164 15.12764907 38254
1 47472U 21006BM  21276.38894936  .00004386  00000-0  25344-3 0  9993
2 47472  97.4851 335.5347 0010077 102.5371 257.6988 15.12770438 38356
1 47472U 21006BM  21276.85196922  .00004539  00000-0  26214-3 0  9992
2 47472  97.4851 335.9889 0010093 101.1656 259.0710 15.12775157 38420
1 47472U 21006BM  21277.44727860  .00004473  00000-0  25834-3 0  9993
2 47472  97.4850 336.5731 0010111  99.5064 260.7310 15.12780550 38514
1 47472U 21006BM  21277.51342409  .00004362  00000-0  25203-3 0  9990
2 47472  97.4850 336.6379 0010113  99.3212 260.9163 15.12780836 38524
1 47472U 21006BM  21277.84415056  .00004159  00000-0  24042-3 0  9999
2 47472  97.4849 336.9624 0010132  98.3137 261.9243 15.12783330 38571
1 47472U 21006BM  21278.43945653  .00004007  00000-0  23176-3 0  9995
2 47472  97.4848 337.5465 0010153  96.6453 263.5934 15.12788337 38662
1 47472U 21006BM  21278.90247131  .00003741  00000-0  21661-3 0  9994
2 47472  97.4847 338.0008 0010167  95.3226 264.9165 15.12791367 38735
1 47472U 21006BM  21278.96861617  .00003707  00000-0  21468-3 0  9998
2 47472  97.4846 338.0657 0010165  95.1175 265.1216 15.12791861 38743
1 47472U 21006BM  21279.43162980  .00003346  00000-0  19409-3 0  9999
2 47472  97.4843 338.5198 0010144  93.7623 266.4768 15.12794124 38813
1 47472U 21006BM  21279.89464185  .00003403  00000-0  19734-3 0  9996
2 47472  97.4841 338.9741 0010140  92.4023 267.8369 15.12798163 38881
1 47472U 21006BM  21280.15921992  .00003397  00000-0  19699-3 0  9993
2 47472  97.4841 339.2337 0010176  91.6493 268.5903 15.12800480 38920
1 47472U 21006BM  21280.55608630  .00003385  00000-0  19629-3 0  9998
2 47472  97.4839 339.6230 0010186  90.5331 269.7067 15.12803449 38981
1 47472U 21006BM  21280.88680759  .00003521  00000-0  20402-3 0  9999
2 47472  97.4837 339.9474 0010175  89.5719 270.6678 15.12806135 39039
1 47472U 21006BM  21281.21752861  .00003232  00000-0  18755-3 0  9998
2 47472  97.4835 340.2719 0010165  88.6154 271.6241 15.12807861 39085
1 47472U 21006BM  21281.54824901  .00003260  00000-0  18915-3 0  9998
2 47472  97.4834 340.5963 0010162  87.6774 272.5620 15.12810317 39139
1 47472U 21006BM  21281.81282503  .00003134  00000-0  18196-3 0  9995
2 47472  97.4832 340.8558 0010145  86.9030 273.3362 15.12811833 39178
1 47472U 21006BM  21282.20968851  .00003062  00000-0  17783-3 0  9997
2 47472  97.4831 341.2450 0010120  85.7294 274.5093 15.12814345 39237
1 47472U 21006BM  21282.40812009  .00003081  00000-0  17893-3 0  9995
2 47472  97.4830 341.4397 0010110  85.1563 275.0822 15.12815578 39268
